ORBCOMM FM20 [+]        
1 25416U 98046D   23310.48124709  .00003044  00000+0  11174-2 0  9995
2 25416  44.9937  82.9533 0001505 186.0589 174.0240 14.34571066319653
ORBCOMM FM16 [-]        
1 25417U 98046E   23310.61985975  .00004500  00000+0  16037-2 0  9992
2 25417  44.9940  79.2836 0005107 213.8185 146.2337 14.35310492319592
ORBCOMM FM15 [-]        
1 25418U 98046F   23310.47348284  .00004407  00000+0  15795-2 0  9999
2 25418  44.9967  83.6206 0004561 214.4867 145.5684 14.35060182319583
ORBCOMM FM14 [-]        
1 25419U 98046G   23310.13116360  .00005375  00000+0  19111-2 0  9992
2 25419  44.9961  84.5607 0003466 201.0281 328.8784 14.35179956319484
ORBCOMM FM13 [+]        
1 25420U 98046H   23310.47904595  .00003438  00000+0  12543-2 0  9996
2 25420  44.9972  86.8631 0005632 201.2279 158.8335 14.34618309318612
ORBCOMM FM21 [-]        
1 25475U 98053A   23310.35719722  .00002199  00000+0  82029-3 0  9997
2 25475  45.0082 171.5618 0000510  81.4888 278.6017 14.34631216312611
ORBCOMM FM22 [-]        
1 25476U 98053B   23310.32354751  .00003087  00000+0  11227-2 0  9990
2 25476  45.0072 169.6554 0002059 134.1332 225.9685 14.35014322312595
ORBCOMM FM23 [-]        
1 25477U 98053C   23310.31761435  .00003141  00000+0  11507-2 0  9993
2 25477  45.0076 174.1941 0001343 123.8981 236.1994 14.34611832312754
