<?xml version="1.0" encoding="UTF-8"?>
<ndm xmlns:xsi="http://www.w3.org/2001/XMLSchema-instance" xsi:noNamespaceSchemaLocation="https://sanaregistry.org/r/ndmxml_unqualified/ndmxml-2.0.0-master-2.0.xsd">
<omm id="CCSDS_OMM_VERS" version="2.0">
<header><CREATION_DATE/><ORIGINATOR/></header><body><segment><metadata><OBJECT_NAME>ORBCOMM FM20 [+]</OBJECT_NAME><OBJECT_ID>1998-046D</OBJECT_ID><CENTER_NAME>EARTH</CENTER_NAME><REF_FRAME>TEME</REF_FRAME><TIME_SYSTEM>UTC</TIME_SYSTEM><MEAN_ELEMENT_THEORY>SGP4</MEAN_ELEMENT_THEORY></metadata><data><meanElements><EPOCH>2023-11-06T11:32:59.748576</EPOCH><MEAN_MOTION>14.34571066</MEAN_MOTION><ECCENTRICITY>.0001505</ECCENTRICITY><INCLINATION>44.9937</INCLINATION><RA_OF_ASC_NODE>82.9533</RA_OF_ASC_NODE><ARG_OF_PERICENTER>186.0589</ARG_OF_PERICENTER><MEAN_ANOMALY>174.0240</MEAN_ANOMALY></meanElements><tleParameters><EPHEMERIS_TYPE>0</EPHEMERIS_TYPE><CLASSIFICATION_TYPE>U</CLASSIFICATION_TYPE><NORAD_CAT_ID>25416</NORAD_CAT_ID><ELEMENT_SET_NO>999</ELEMENT_SET_NO><REV_AT_EPOCH>31965</REV_AT_EPOCH><BSTAR>.11174E-2</BSTAR><MEAN_MOTION_DOT>.3044E-4</MEAN_MOTION_DOT><MEAN_MOTION_DDOT>0</MEAN_MOTION_DDOT></tleParameters></data></segment></body></omm>
<omm id="CCSDS_OMM_VERS" version="2.0">
<header><CREATION_DATE/><ORIGINATOR/></header><body><segment><metadata><OBJECT_NAME>ORBCOMM FM16 [-]</OBJECT_NAME><OBJECT_ID>1998-046E</OBJECT_ID><CENTER_NAME>EARTH</CENTER_NAME><REF_FRAME>TEME</REF_FRAME><TIME_SYSTEM>UTC</TIME_SYSTEM><MEAN_ELEMENT_THEORY>SGP4</MEAN_ELEMENT_THEORY></metadata><data><meanElements><EPOCH>2023-11-06T14:52:35.882400</EPOCH><MEAN_MOTION>14.35310492</MEAN_MOTION><ECCENTRICITY>.0005107</ECCENTRICITY><INCLINATION>44.9940</INCLINATION><RA_OF_ASC_NODE>79.2836</RA_OF_ASC_NODE><ARG_OF_PERICENTER>213.8185</ARG_OF_PERICENTER><MEAN_ANOMALY>146.2337</MEAN_ANOMALY></meanElements><tleParameters><EPHEMERIS_TYPE>0</EPHEMERIS_TYPE><CLASSIFICATION_TYPE>U</CLASSIFICATION_TYPE><NORAD_CAT_ID>25417</NORAD_CAT_ID><ELEMENT_SET_NO>999</ELEMENT_SET_NO><REV_AT_EPOCH>31959</REV_AT_EPOCH><BSTAR>.16037E-2</BSTAR><MEAN_MOTION_DOT>.45E-4</MEAN_MOTION_DOT><MEAN_MOTION_DDOT>0</MEAN_MOTION_DDOT></tleParameters></data></segment></body></omm>
<omm id="CCSDS_OMM_VERS" version="2.0">
<header><CREATION_DATE/><ORIGINATOR/></header><body><segment><metadata><OBJECT_NAME>ORBCOMM FM15 [-]</OBJECT_NAME><OBJECT_ID>1998-046F</OBJECT_ID><CENTER_NAME>EARTH</CENTER_NAME><REF_FRAME>TEME</REF_FRAME><TIME_SYSTEM>UTC</TIME_SYSTEM><MEAN_ELEMENT_THEORY>SGP4</MEAN_ELEMENT_THEORY></metadata><data><meanElements><EPOCH>2023-11-06T11:21:48.917376</EPOCH><MEAN_MOTION>14.35060182</MEAN_MOTION><ECCENTRICITY>.0004561</ECCENTRICITY><INCLINATION>44.9967</INCLINATION><RA_OF_ASC_NODE>83.6206</RA_OF_ASC_NODE><ARG_OF_PERICENTER>214.4867</ARG_OF_PERICENTER><MEAN_ANOMALY>145.5684</MEAN_ANOMALY></meanElements><tleParameters><EPHEMERIS_TYPE>0</EPHEMERIS_TYPE><CLASSIFICATION_TYPE>U</CLASSIFICATION_TYPE><NORAD_CAT_ID>25418</NORAD_CAT_ID><ELEMENT_SET_NO>999</ELEMENT_SET_NO><REV_AT_EPOCH>31958</REV_AT_EPOCH><BSTAR>.15795E-2</BSTAR><MEAN_MOTION_DOT>.4407E-4</MEAN_MOTION_DOT><MEAN_MOTION_DDOT>0</MEAN_MOTION_DDOT></tleParameters></data></segment></body></omm>
<omm id="CCSDS_OMM_VERS" version="2.0">
<header><CREATION_DATE/><ORIGINATOR/></header><body><segment><metadata><OBJECT_NAME>ORBCOMM FM14 [-]</OBJECT_NAME><OBJECT_ID>1998-046G</OBJECT_ID><CENTER_NAME>EARTH</CENTER_NAME><REF_FRAME>TEME</REF_FRAME><TIME_SYSTEM>UTC</TIME_SYSTEM><MEAN_ELEMENT_THEORY>SGP4</MEAN_ELEMENT_THEORY></metadata><data><meanElements><EPOCH>2023-11-06T03:08:52.535040</EPOCH><MEAN_MOTION>14.35179956</MEAN_MOTION><ECCENTRICITY>.0003466</ECCENTRICITY><INCLINATION>44.9961</INCLINATION><RA_OF_ASC_NODE>84.5607</RA_OF_ASC_NODE><ARG_OF_PERICENTER>201.0281</ARG_OF_PERICENTER><MEAN_ANOMALY>328.8784</MEAN_ANOMALY></meanElements><tleParameters><EPHEMERIS_TYPE>0</EPHEMERIS_TYPE><CLASSIFICATION_TYPE>U</CLASSIFICATION_TYPE><NORAD_CAT_ID>25419</NORAD_CAT_ID><ELEMENT_SET_NO>999</ELEMENT_SET_NO><REV_AT_EPOCH>31948</REV_AT_EPOCH><BSTAR>.19111E-2</BSTAR><MEAN_MOTION_DOT>.5375E-4</MEAN_MOTION_DOT><MEAN_MOTION_DDOT>0</MEAN_MOTION_DDOT></tleParameters></data></segment></body></omm>
<omm id="CCSDS_OMM_VERS" version="2.0">
<header><CREATION_DATE/><ORIGINATOR/></header><body><segment><metadata><OBJECT_NAME>ORBCOMM FM13 [+]</OBJECT_NAME><OBJECT_ID>1998-046H</OBJECT_ID><CENTER_NAME>EARTH</CENTER_NAME><REF_FRAME>TEME</REF_FRAME><TIME_SYSTEM>UTC</TIME_SYSTEM><MEAN_ELEMENT_THEORY>SGP4</MEAN_ELEMENT_THEORY></metadata><data><meanElements><EPOCH>2023-11-06T11:29:49.570080</EPOCH><MEAN_MOTION>14.34618309</MEAN_MOTION><ECCENTRICITY>.0005632</ECCENTRICITY><INCLINATION>44.9972</INCLINATION><RA_OF_ASC_NODE>86.8631</RA_OF_ASC_NODE><ARG_OF_PERICENTER>201.2279</ARG_OF_PERICENTER><MEAN_ANOMALY>158.8335</MEAN_ANOMALY></meanElements><tleParameters><EPHEMERIS_TYPE>0</EPHEMERIS_TYPE><CLASSIFICATION_TYPE>U</CLASSIFICATION_TYPE><NORAD_CAT_ID>25420</NORAD_CAT_ID><ELEMENT_SET_NO>999</ELEMENT_SET_NO><REV_AT_EPOCH>31861</REV_AT_EPOCH><BSTAR>.12543E-2</BSTAR><MEAN_MOTION_DOT>.3438E-4</MEAN_MOTION_DOT><MEAN_MOTION_DDOT>0</MEAN_MOTION_DDOT></tleParameters></data></segment></body></omm>
<omm id="CCSDS_OMM_VERS" version="2.0">
<header><CREATION_DATE/><ORIGINATOR/></header><body><segment><metadata><OBJECT_NAME>ORBCOMM FM21 [-]</OBJECT_NAME><OBJECT_ID>1998-053A</OBJECT_ID><CENTER_NAME>EARTH</CENTER_NAME><REF_FRAME>TEME</REF_FRAME><TIME_SYSTEM>UTC</TIME_SYSTEM><MEAN_ELEMENT_THEORY>SGP4</MEAN_ELEMENT_THEORY></metadata><data><meanElements><EPOCH>2023-11-06T08:34:21.839808</EPOCH><MEAN_MOTION>14.34631216</MEAN_MOTION><ECCENTRICITY>.000051</ECCENTRICITY><INCLINATION>45.0082</INCLINATION><RA_OF_ASC_NODE>171.5618</RA_OF_ASC_NODE><ARG_OF_PERICENTER>81.4888</ARG_OF_PERICENTER><MEAN_ANOMALY>278.6017</MEAN_ANOMALY></meanElements><tleParameters><EPHEMERIS_TYPE>0</EPHEMERIS_TYPE><CLASSIFICATION_TYPE>U</CLASSIFICATION_TYPE><NORAD_CAT_ID>25475</NORAD_CAT_ID><ELEMENT_SET_NO>999</ELEMENT_SET_NO><REV_AT_EPOCH>31261</REV_AT_EPOCH><BSTAR>.82029E-3</BSTAR><MEAN_MOTION_DOT>.2199E-4</MEAN_MOTION_DOT><MEAN_MOTION_DDOT>0</MEAN_MOTION_DDOT></tleParameters></data></segment></body></omm>
<omm id="CCSDS_OMM_VERS" version="2.0">
<header><CREATION_DATE/><ORIGINATOR/></header><body><segment><metadata><OBJECT_NAME>ORBCOMM FM22 [-]</OBJECT_NAME><OBJECT_ID>1998-053B</OBJECT_ID><CENTER_NAME>EARTH</CENTER_NAME><REF_FRAME>TEME</REF_FRAME><TIME_SYSTEM>UTC</TIME_SYSTEM><MEAN_ELEMENT_THEORY>SGP4</MEAN_ELEMENT_THEORY></metadata><data><meanElements><EPOCH>2023-11-06T07:45:54.504864</EPOCH><MEAN_MOTION>14.35014322</MEAN_MOTION><ECCENTRICITY>.0002059</ECCENTRICITY><INCLINATION>45.0072</INCLINATION><RA_OF_ASC_NODE>169.6554</RA_OF_ASC_NODE><ARG_OF_PERICENTER>134.1332</ARG_OF_PERICENTER><MEAN_ANOMALY>225.9685</MEAN_ANOMALY></meanElements><tleParameters><EPHEMERIS_TYPE>0</EPHEMERIS_TYPE><CLASSIFICATION_TYPE>U</CLASSIFICATION_TYPE><NORAD_CAT_ID>25476</NORAD_CAT_ID><ELEMENT_SET_NO>999</ELEMENT_SET_NO><REV_AT_EPOCH>31259</REV_AT_EPOCH><BSTAR>.11227E-2</BSTAR><MEAN_MOTION_DOT>.3087E-4</MEAN_MOTION_DOT><MEAN_MOTION_DDOT>0</MEAN_MOTION_DDOT></tleParameters></data></segment></body></omm>
<omm id="CCSDS_OMM_VERS" version="2.0">
<header><CREATION_DATE/><ORIGINATOR/></header><body><segment><metadata><OBJECT_NAME>ORBCOMM FM23 [-]</OBJECT_NAME><OBJECT_ID>1998-053C</OBJECT_ID><CENTER_NAME>EARTH</CENTER_NAME><REF_FRAME>TEME</REF_FRAME><TIME_SYSTEM>UTC</TIME_SYSTEM><MEAN_ELEMENT_THEORY>SGP4</MEAN_ELEMENT_THEORY></metadata><data><meanElements><EPOCH>2023-11-06T07:37:21.879840</EPOCH><MEAN_MOTION>14.34611832</MEAN_MOTION><ECCENTRICITY>.0001343</ECCENTRICITY><INCLINATION>45.0076</INCLINATION><RA_OF_ASC_NODE>174.1941</RA_OF_ASC_NODE><ARG_OF_PERICENTER>123.8981</ARG_OF_PERICENTER><MEAN_ANOMALY>236.1994</MEAN_ANOMALY></meanElements><tleParameters><EPHEMERIS_TYPE>0</EPHEMERIS_TYPE><CLASSIFICATION_TYPE>U</CLASSIFICATION_TYPE><NORAD_CAT_ID>25477</NORAD_CAT_ID><ELEMENT_SET_NO>999</ELEMENT_SET_NO><REV_AT_EPOCH>31275</REV_AT_EPOCH><BSTAR>.11507E-2</BSTAR><MEAN_MOTION_DOT>.3141E-4</MEAN_MOTION_DOT><MEAN_MOTION_DDOT>0</MEAN_MOTION_DDOT></tleParameters></data></segment></body></omm>

</ndm>
